{
  "type": "FeatureCollection",
  "features": [
    {
      "type": "Feature",
      "properties": {
        "norad_id": 67060,
        "name": "HULIANWANG DIGUI-120",
        "group": "last-30-days",
        "lat": 36.67403003210123,
        "lon": 115.71582937345997,
        "alt_km": 809.298937812021,
        "timestamp": "2025-12-21T16:47:53.452914+00:00",
        "meta_object_name": "HULIANWANG DIGUI-120",
        "meta_object_id": "2025-295B",
        "meta_epoch": "2025-12-21T11:08:58.090272",
        "meta_mean_motion": 14.25709925,
        "meta_eccentricity": 0.0013174,
        "meta_inclination": 50.0059,
        "meta_ra_of_asc_node": 335.4012,
        "meta_arg_of_pericenter": 278.2032,
        "meta_mean_anomaly": 81.7387,
        "meta_ephemeris_type": 0,
        "meta_classification_type": "U",
        "meta_norad_cat_id": 67060,
        "meta_element_set_no": 999,
        "meta_rev_at_epoch": 136,
        "meta_bstar": -1.2717e-05,
        "meta_mean_motion_dot": -1.91e-06,
        "meta_mean_motion_ddot": 0,
        "tle_line1": "1 67060U 25295B   25355.46456123 -.00000191  00000+0 -12717-4 0  9997",
        "tle_line2": "2 67060  50.0059 335.4012 0013174 278.2032  81.7387 14.25709925  1366"
      },
      "geometry": {
        "type": "Point",
        "coordinates": [
          115.71582937345997,
          36.67403003210123
        ]
      }
    },
    {
      "type": "Feature",
      "properties": {
        "norad_id": 67061,
        "name": "HULIANWANG DIGUI-121",
        "group": "last-30-days",
        "lat": 37.36655248709861,
        "lon": 114.52238031841817,
        "alt_km": 811.5422830750449,
        "timestamp": "2025-12-21T16:47:53.452924+00:00",
        "meta_object_name": "HULIANWANG DIGUI-121",
        "meta_object_id": "2025-295C",
        "meta_epoch": "2025-12-21T11:09:08.115264",
        "meta_mean_motion": 14.2503841,
        "meta_eccentricity": 0.0013389,
        "meta_inclination": 50.0022,
        "meta_ra_of_asc_node": 335.3907,
        "meta_arg_of_pericenter": 276.5317,
        "meta_mean_anomaly": 83.4072,
        "meta_ephemeris_type": 0,
        "meta_classification_type": "U",
        "meta_norad_cat_id": 67061,
        "meta_element_set_no": 999,
        "meta_rev_at_epoch": 136,
        "meta_bstar": 2.6356e-07,
        "meta_mean_motion_dot": -1.59e-06,
        "meta_mean_motion_ddot": 0,
        "tle_line1": "1 67061U 25295C   25355.46467726 -.00000159  00000+0  26356-6 0  9998",
        "tle_line2": "2 67061  50.0022 335.3907 0013389 276.5317  83.4072 14.25038410  1368"
      },
      "geometry": {
        "type": "Point",
        "coordinates": [
          114.52238031841817,
          37.36655248709861
        ]
      }
    },
    {
      "type": "Feature",
      "properties": {
        "norad_id": 67062,
        "name": "HULIANWANG DIGUI-122",
        "group": "last-30-days",
        "lat": 35.66296216724588,
        "lon": 117.36051479080432,
        "alt_km": 809.6131862922284,
        "timestamp": "2025-12-21T16:47:53.452934+00:00",
        "meta_object_name": "HULIANWANG DIGUI-122",
        "meta_object_id": "2025-295D",
        "meta_epoch": "2025-12-21T11:08:30.883776",
        "meta_mean_motion": 14.25756317,
        "meta_eccentricity": 0.0013165,
        "meta_inclination": 50.0054,
        "meta_ra_of_asc_node": 335.3982,
        "meta_arg_of_pericenter": 284.0254,
        "meta_mean_anomaly": 75.9196,
        "meta_ephemeris_type": 0,
        "meta_classification_type": "U",
        "meta_norad_cat_id": 67062,
        "meta_element_set_no": 999,
        "meta_rev_at_epoch": 136,
        "meta_bstar": 8.5481e-05,
        "meta_mean_motion_dot": 4.4e-07,
        "meta_mean_motion_ddot": 0,
        "tle_line1": "1 67062U 25295D   25355.46424634  .00000044  00000+0  85481-4 0  9994",
        "tle_line2": "2 67062  50.0054 335.3982 0013165 284.0254  75.9196 14.25756317  1369"
      },
      "geometry": {
        "type": "Point",
        "coordinates": [
          117.36051479080432,
          35.66296216724588
        ]
      }
    },
    {
      "type": "Feature",
      "properties": {
        "norad_id": 67063,
        "name": "HULIANWANG DIGUI-123",
        "group": "last-30-days",
        "lat": 32.74823954358836,
        "lon": 121.71825480292037,
        "alt_km": 808.7745276339438,
        "timestamp": "2025-12-21T16:47:53.452944+00:00",
        "meta_object_name": "HULIANWANG DIGUI-123",
        "meta_object_id": "2025-295E",
        "meta_epoch": "2025-12-21T11:07:14.835360",
        "meta_mean_motion": 14.25889145,
        "meta_eccentricity": 0.0012476,
        "meta_inclination": 50.006,
        "meta_ra_of_asc_node": 335.396,
        "meta_arg_of_pericenter": 283.1961,
        "meta_mean_anomaly": 76.7561,
        "meta_ephemeris_type": 0,
        "meta_classification_type": "U",
        "meta_norad_cat_id": 67063,
        "meta_element_set_no": 999,
        "meta_rev_at_epoch": 136,
        "meta_bstar": 8.4442e-05,
        "meta_mean_motion_dot": 4.2e-07,
        "meta_mean_motion_ddot": 0,
        "tle_line1": "1 67063U 25295E   25355.46336615  .00000042  00000+0  84442-4 0  9990",
        "tle_line2": "2 67063  50.0060 335.3960 0012476 283.1961  76.7561 14.25889145  1363"
      },
      "geometry": {
        "type": "Point",
        "coordinates": [
          121.71825480292037,
          32.74823954358836
        ]
      }
    },
    {
      "type": "Feature",
      "properties": {
        "norad_id": 67064,
        "name": "HULIANWANG DIGUI-124",
        "group": "last-30-days",
        "lat": 31.376312138622293,
        "lon": 123.58258335874336,
        "alt_km": 807.9289082680216,
        "timestamp": "2025-12-21T16:47:53.452953+00:00",
        "meta_object_name": "HULIANWANG DIGUI-124",
        "meta_object_id": "2025-295F",
        "meta_epoch": "2025-12-21T06:03:55.141056",
        "meta_mean_motion": 14.25948235,
        "meta_eccentricity": 0.0012102,
        "meta_inclination": 50.0035,
        "meta_ra_of_asc_node": 336.2679,
        "meta_arg_of_pericenter": 277.2005,
        "meta_mean_anomaly": 82.7533,
        "meta_ephemeris_type": 0,
        "meta_classification_type": "U",
        "meta_norad_cat_id": 67064,
        "meta_element_set_no": 999,
        "meta_rev_at_epoch": 133,
        "meta_bstar": -0.00020016,
        "meta_mean_motion_dot": -6.41e-06,
        "meta_mean_motion_ddot": 0,
        "tle_line1": "1 67064U 25295F   25355.25272154 -.00000641  00000+0 -20016-3 0  9998",
        "tle_line2": "2 67064  50.0035 336.2679 0012102 277.2005  82.7533 14.25948235  1331"
      },
      "geometry": {
        "type": "Point",
        "coordinates": [
          123.58258335874336,
          31.376312138622293
        ]
      }
    },
    {
      "type": "Feature",
      "properties": {
        "norad_id": 67065,
        "name": "HULIANWANG DIGUI-125",
        "group": "last-30-days",
        "lat": 31.255594241261537,
        "lon": 123.73953739861845,
        "alt_km": 808.5375809044954,
        "timestamp": "2025-12-21T16:47:53.452966+00:00",
        "meta_object_name": "HULIANWANG DIGUI-125",
        "meta_object_id": "2025-295G",
        "meta_epoch": "2025-12-21T11:06:37.393056",
        "meta_mean_motion": 14.25954731,
        "meta_eccentricity": 0.0012268,
        "meta_inclination": 50.0011,
        "meta_ra_of_asc_node": 335.378,
        "meta_arg_of_pericenter": 283.9385,
        "meta_mean_anomaly": 76.0164,
        "meta_ephemeris_type": 0,
        "meta_classification_type": "U",
        "meta_norad_cat_id": 67065,
        "meta_element_set_no": 999,
        "meta_rev_at_epoch": 136,
        "meta_bstar": 7.9035e-05,
        "meta_mean_motion_dot": 3e-07,
        "meta_mean_motion_ddot": 0,
        "tle_line1": "1 67065U 25295G   25355.46293279  .00000030  00000+0  79035-4 0  9999",
        "tle_line2": "2 67065  50.0011 335.3780 0012268 283.9385  76.0164 14.25954731  1364"
      },
      "geometry": {
        "type": "Point",
        "coordinates": [
          123.73953739861845,
          31.255594241261537
        ]
      }
    },
    {
      "type": "Feature",
      "properties": {
        "norad_id": 67066,
        "name": "HULIANWANG DIGUI-126",
        "group": "last-30-days",
        "lat": 27.82921996938654,
        "lon": 128.05693848462312,
        "alt_km": 807.4160375419024,
        "timestamp": "2025-12-21T16:47:53.452978+00:00",
        "meta_object_name": "HULIANWANG DIGUI-126",
        "meta_object_id": "2025-295H",
        "meta_epoch": "2025-12-21T11:05:13.914240",
        "meta_mean_motion": 14.2609769,
        "meta_eccentricity": 0.0011428,
        "meta_inclination": 50.0013,
        "meta_ra_of_asc_node": 335.3721,
        "meta_arg_of_pericenter": 281.0639,
        "meta_mean_anomaly": 78.8989,
        "meta_ephemeris_type": 0,
        "meta_classification_type": "U",
        "meta_norad_cat_id": 67066,
        "meta_element_set_no": 999,
        "meta_rev_at_epoch": 136,
        "meta_bstar": 7.6909e-05,
        "meta_mean_motion_dot": 2.5e-07,
        "meta_mean_motion_ddot": 0,
        "tle_line1": "1 67066U 25295H   25355.46196660  .00000025  00000+0  76909-4 0  9997",
        "tle_line2": "2 67066  50.0013 335.3721 0011428 281.0639  78.8989 14.26097690  1368"
      },
      "geometry": {
        "type": "Point",
        "coordinates": [
          128.05693848462312,
          27.82921996938654
        ]
      }
    }
  ]
}